[{"OBJECT_NAME":"SHIYAN-6 01 (SY-6 01)","OBJECT_ID":"2018-094B","EPOCH":"2026-03-09T23:04:36.967872","MEAN_MOTION":15.28649156,"ECCENTRICITY":0.00144834,"INCLINATION":97.3669,"RA_OF_ASC_NODE":84.0964,"ARG_OF_PERICENTER":135.6758,"MEAN_ANOMALY":224.5644,"EPHEMERIS_TYPE":0,"CLASSIFICATION_TYPE":"U","NORAD_CAT_ID":43711,"ELEMENT_SET_NO":999,"REV_AT_EPOCH":40632,"BSTAR":0.00024768444,"MEAN_MOTION_DOT":6.847e-5,"MEAN_MOTION_DDOT":0},{"OBJECT_NAME":"STARLINK-35003","OBJECT_ID":"2025-192K","EPOCH":"2026-03-09T17:11:04.915104","MEAN_MOTION":15.30180121,"ECCENTRICITY":0.0001029,"INCLINATION":53.1599,"RA_OF_ASC_NODE":232.5552,"ARG_OF_PERICENTER":88.3358,"MEAN_ANOMALY":271.7761,"EPHEMERIS_TYPE":0,"CLASSIFICATION_TYPE":"U","NORAD_CAT_ID":65413,"ELEMENT_SET_NO":999,"REV_AT_EPOCH":2938,"BSTAR":0.00050553466,"MEAN_MOTION_DOT":0.00014634,"MEAN_MOTION_DDOT":0}]
